2023-007C               
1 55250U 23007C   23034.55518914  .00018466  00000+0  73008-3 0  9994
2 55250  97.3750 108.7267 0008140 181.2259 291.7448 15.25500382  2954
2023-007D               
1 55251U 23007D   23034.42614499  .00018079  00000+0  71380-3 0  9997
2 55251  97.3795 108.6151 0008914 185.7120 303.1358 15.25544308  2932
2023-007E               
1 55252U 23007E   23034.56885433 -.00026202  00000+0 -11666-2 0  9990
2 55252  97.3762 108.7089 0006304 213.5817 265.2187 15.21483702  2958
2023-007F               
1 55253U 23007F   23034.81862882 -.00025346  00000+0 -10771-2 0  9996
2 55253  97.3766 108.9846 0003144 181.0389 290.9541 15.23076687  2993
2023-007G               
1 55254U 23007G   23034.55292225  .00013236  00000+0  52336-3 0  9993
2 55254  97.3787 108.7409 0008221 191.4471 282.4808 15.25570072  2955
2023-007H               
1 55255U 23007H   23034.41839255  .00023632  00000+0  90974-3 0  9990
2 55255  97.3723 108.6066 0008636 203.5385 289.1381 15.26335071  2930
2023-007J               
1 55256U 23007J   23034.54720042  .00017224  00000+0  66962-3 0  9998
2 55256  97.3764 108.7393 0008402 202.1416 269.3124 15.26075676  2950
2023-007K               
1 55257U 23007K   23034.42090333  .00008660  00000+0  34185-3 0  9995
2 55257  97.3745 108.6070 0008077 205.5002 283.3701 15.25742938  2933
2023-007L               
1 55258U 23007L   23034.47120453  .00011107  00000+0  43481-3 0  9997
2 55258  97.3759 108.6649 0007800 207.7012 207.7399 15.25951293  2949
2023-007M               
1 55259U 23007M   23034.46779230  .00009874  00000+0  38402-3 0  9995
2 55259  97.3712 108.6571 0008082 216.6996 199.2755 15.26200866  2941
2023-007N               
1 55260U 23007N   23034.45838054  .00014234  00000+0  53832-3 0  9996
2 55260  97.3719 108.6706 0008065 235.9512 179.2185 15.27037754  2949
2023-007P               
1 55261U 23007P   23034.45744391  .00010186  00000+0  38606-3 0  9991
2 55261  97.3715 108.6707 0008800 240.3562 175.0956 15.27045353  2943
USA 342                 
1 55263U 23008A   23034.57016139 -.00000013  00000+0  00000+0 0  9991
2 55263   0.0232  36.9180 0008618  59.6208 106.4913  1.01098867   183
NAVSTAR 82 (USA 343)    
1 55268U 23009A   23033.95989605  .00000040  00000+0  00000+0 0  9994
2 55268  55.1006 196.7830 0008171  97.8738 262.1920  2.00570570   589
STARLINK-5277           
1 55269U 23010A   23034.58334491 -.00849624  00000+0 -58519-2 0  9996
2 55269  69.9991  26.6725 0003427 264.2775 316.9066 15.76633955  1304
STARLINK-5301           
1 55270U 23010B   23034.58334491 -.00850540  00000+0 -58660-2 0  9994
2 55270  69.9991  26.6732 0003525 264.0551 315.7343 15.76605269  1305
STARLINK-5306           
1 55271U 23010C   23034.58334491 -.00849357  00000+0 -58523-2 0  9997
2 55271  69.9991  26.6730 0003478 263.5570 317.1589 15.76624016  1305
STARLINK-5310           
1 55272U 23010D   23034.58334491 -.00849837  00000+0 -58598-2 0  9993
2 55272  69.9992  26.6742 0003483 264.1243 315.0082 15.76609099  1309
STARLINK-5291           
1 55273U 23010E   23034.58334491 -.00851836  00000+0 -58639-2 0  9992
2 55273  69.9992  26.6708 0003500 265.9019 316.2588 15.76651381  1307
STARLINK-5236           
1 55274U 23010F   23034.58334491 -.00850845  00000+0 -58543-2 0  9996
2 55274  69.9991  26.6698 0003482 266.8431 315.7921 15.76659642  1305
STARLINK-5260           
1 55275U 23010G   23034.58334491 -.00838227  00000+0 -57589-2 0  9996
2 55275  69.9992  26.6699 0003448 264.2012 318.9045 15.76660008  1307
STARLINK-5261           
1 55276U 23010H   23034.58334491 -.00835911  00000+0 -57349-2 0  9998
2 55276  69.9992  26.6676 0003429 264.0350 320.4858 15.76685826  1300
STARLINK-5299           
1 55277U 23010J   23034.58334491 -.00862343  00000+0 -59341-2 0  9992
2 55277  69.9989  26.6689 0003544 263.5842 319.9815 15.76686928  1309
STARLINK-5289           
1 55278U 23010K   23034.58334491 -.00842380  00000+0 -57751-2 0  9995
2 55278  69.9992  26.6660 0003475 267.7965 318.1254 15.76718747  1301
STARLINK-5323           
1 55279U 23010L   23034.58334491 -.00847715  00000+0 -58239-2 0  9995
2 55279  69.9990  26.6683 0003530 263.5123 320.5342 15.76684978  1300
STARLINK-5331           
1 55280U 23010M   23034.58334491 -.00845493  00000+0 -57961-2 0  9999
2 55280  69.9990  26.6656 0003449 264.1633 322.2489 15.76728685  1309
STARLINK-5298           
1 55281U 23010N   23034.58334491 -.00852601  00000+0 -58554-2 0  9998
2 55281  69.9991  26.6672 0003504 262.4797 322.5164 15.76706245  1304
STARLINK-5330           
1 55282U 23010P   23034.58334491 -.00872372  00000+0 -59867-2 0  9994
2 55282  69.9990  26.6631 0003495 263.6013 324.2132 15.76775892  1300
STARLINK-5317           
1 55283U 23010Q   23034.58334491 -.00860365  00000+0 -59101-2 0  9995
2 55283  69.9990  26.6664 0003546 262.4867 322.9777 15.76721155  1301
STARLINK-5337           
1 55284U 23010R   23034.58334491 -.00847645  00000+0 -58006-2 0  9995
2 55284  69.9992  26.6623 0003481 264.2659 324.5261 15.76773736  1304
STARLINK-5332           
1 55285U 23010S   23034.58334491 -.00835984  00000+0 -52665-2 0  9994
2 55285  69.9993  26.5562 0003593 265.6661  52.9802 15.78587029  1302
STARLINK-5338           
1 55286U 23010T   23034.58334491 -.00847866  00000+0 -58039-2 0  9998
2 55286  69.9989  26.6631 0003480 265.7206 322.5674 15.76767414  1306
STARLINK-5341           
1 55287U 23010U   23034.58334491 -.00842827  00000+0 -57718-2 0  9994
2 55287  69.9991  26.6643 0003492 265.1487 322.2109 15.76744530  1305
STARLINK-5311           
1 55288U 23010V   23034.58334491 -.00859890  00000+0 -58734-2 0  9992
2 55288  69.9990  26.6585 0003489 261.7405 330.3142 15.76848278  1309
STARLINK-5320           
1 55289U 23010W   23034.58334491 -.00846906  00000+0 -57899-2 0  9998
2 55289  69.9991  26.6615 0003491 262.2415 327.4644 15.76793554  1305
STARLINK-5266           
1 55290U 23010X   23034.58334491 -.00849810  00000+0 -58065-2 0  9993
2 55290  69.9989  26.6601 0003450 263.5719 327.0695 15.76814372  1309
STARLINK-5327           
1 55291U 23010Y   23034.58334491 -.00843413  00000+0 -57618-2 0  9990
2 55291  69.9991  26.6607 0003494 263.5701 326.5991 15.76800714  1306
STARLINK-5325           
1 55292U 23010Z   23034.58334491  .00162135  00000+0  98920-3 0  9996
2 55292  69.9978  26.6529 0003219 261.9623 330.5734 15.76772980  1308
STARLINK-5287           
1 55293U 23010AA  23034.58334491 -.00844250  00000+0 -57610-2 0  9994
2 55293  69.9990  26.6591 0003501 263.5726 328.0106 15.76828291  1300
STARLINK-5286           
1 55294U 23010AB  23034.58334491 -.00844506  00000+0 -57853-2 0  9998
2 55294  69.9989  26.6641 0003541 263.1275 323.7082 15.76740610  1307
STARLINK-5293           
1 55295U 23010AC  23034.58334491 -.00842201  00000+0 -58004-2 0  9998
2 55295  69.9991  26.6723 0003495 263.6613 316.5169 15.76614808  1306
STARLINK-5285           
1 55296U 23010AD  23034.58334491 -.00858809  00000+0 -58536-2 0  9990
2 55296  69.9991  26.6557 0003517 261.8629 332.5417 15.76892650  1301
STARLINK-5284           
1 55297U 23010AE  23034.58334491 -.00845113  00000+0 -57603-2 0  9999
2 55297  69.9990  26.6575 0003495 262.0397 330.9491 15.76856334  1304
STARLINK-5272           
1 55298U 23010AF  23034.58334491 -.00856962  00000+0 -58373-2 0  9999
2 55298  69.9989  26.6543 0003578 262.8366 332.0272 15.76901257  1309
STARLINK-5270           
1 55299U 23010AG  23034.58334491 -.00847320  00000+0 -57744-2 0  9999
2 55299  69.9989  26.6565 0003469 266.9190 326.5507 15.76866199  1307
STARLINK-5308           
1 55300U 23010AH  23034.58334491 -.00852864  00000+0 -58051-2 0  9993
2 55300  69.9989  26.6539 0003546 263.2695 332.0636 15.76907351  1308
STARLINK-5321           
1 55302U 23010AK  23034.58334491 -.00851866  00000+0 -57961-2 0  9995
2 55302  69.9991  26.6538 0003455 265.4168 330.4019 15.76914380  1307
STARLINK-5322           
1 55303U 23010AL  23034.58334491 -.00844749  00000+0 -57756-2 0  9990
2 55303  69.9990  26.6617 0003448 262.0316 327.1552 15.76786619  1302
STARLINK-5318           
1 55304U 23010AM  23034.58334491 -.00839161  00000+0 -57010-2 0  9996
2 55304  69.9991  26.6529 0003480 261.2057 335.0837 15.76914459  1304
STARLINK-5316           
1 55305U 23010AN  23034.58334491 -.00843874  00000+0 -58050-2 0  9998
2 55305  69.9991  26.6707 0003485 264.6653 316.8925 15.76646236  1307
STARLINK-5295           
1 55306U 23010AP  23034.58334491 -.00860402  00000+0 -58513-2 0  9999
2 55306  69.9991  26.6514 0003508 264.3062 332.9184 15.76947454  1303
STARLINK-5288           
1 55307U 23010AQ  23034.58334491 -.00855505  00000+0 -58176-2 0  9993
2 55307  69.9990  26.6523 0003562 264.4653 332.2897 15.76935311  1303
STARLINK-5292           
1 55308U 23010AR  23034.58334491 -.00691729  00000+0 -46202-2 0  9997
2 55308  69.9985  26.6473 0003449 261.7388 337.3682 15.76909432  1304
STARLINK-5315           
1 55309U 23010AS  23034.58334491 -.00871827  00000+0 -59319-2 0  9990
2 55309  69.9988  26.6510 0003570 261.7374 335.9381 15.76966066  1306
STARLINK-5309           
1 55310U 23010AT  23034.58334491 -.00847926  00000+0 -57525-2 0  9992
2 55310  69.9989  26.6500 0003546 261.3664 337.2318 15.76968260  1302
STARLINK-5312           
1 55311U 23010AU  23034.58334491 -.00852102  00000+0 -57858-2 0  9994
2 55311  69.9991  26.6512 0003514 261.4234 336.7302 15.76960460  1309
STARLINK-5296           
1 55312U 23010AV  23034.58334491 -.00656650  14165-3 -17737-2 0  9998
2 55312  69.9943  25.8999 0005180 265.6225 235.2113 15.94026699  1304
STARLINK-5313           
1 55313U 23010AW  23034.58334491 -.00851748  00000+0 -57757-2 0  9999
2 55313  69.9991  26.6487 0003549 264.4410 335.0945 15.76988967  1306
STARLINK-5305           
1 55314U 23010AX  23034.58334491 -.00836046  00000+0 -56555-2 0  9999
2 55314  69.9991  26.6471 0003485 261.6807 339.2906 15.77002584  1304
